start=new Date('2021-10-11T00:00:00.000Z').valueOf();
sats=[{"OBJECT_NAME":"STARLINK-2050","ARG_OF_PERICENTER":"94.4638","TIME_SYSTEM":"UTC","GP_ID":"186841057","LAUNCH_DATE":"2021-01-20","PERIOD":"95.592","MEAN_ANOMALY":"265.6555","TLE_LINE1":"1 47357U 21005J   21283.74168009  .00002928  00000-0  21533-3 0  9993","OBJECT_ID":"2021-005J","NORAD_CAT_ID":"47357","MEAN_ELEMENT_THEORY":"SGP4","BSTAR":"0.00021533000000","APOAPSIS":"548.421","RA_OF_ASC_NODE":"93.4588","SEMIMAJOR_AXIS":"6925.320","SITE":"AFETR","MEAN_MOTION_DOT":"0.00002928","PERIAPSIS":"545.948","CENTER_NAME":"EARTH","OBJECT_TYPE":"PAYLOAD","MEAN_MOTION":"15.06409433","REF_FRAME":"TEME","MEAN_MOTION_DDOT":"0.0000000000000","ELEMENT_SET_NO":"999","FILE":"3155694","DECAY_DATE":null,"REV_AT_EPOCH":"4023","TLE_LINE2":"2 47357  53.0559  93.4588 0001785  94.4638 265.6555 15.06409433 40235","INCLINATION":"53.0559","CLASSIFICATION_TYPE":"U","COUNTRY_CODE":"US","RCS_SIZE":"LARGE","EPOCH":"2021-10-10T17:48:01.159776","ECCENTRICITY":"0.00017850","EPHEMERIS_TYPE":"0"},{"RCS_SIZE":"LARGE","EPOCH":"2021-10-10T17:51:59.391360","ECCENTRICITY":"0.00013250","EPHEMERIS_TYPE":"0","INCLINATION":"53.0558","CLASSIFICATION_TYPE":"U","COUNTRY_CODE":"US","DECAY_DATE":null,"FILE":"3155694","REV_AT_EPOCH":"4065","TLE_LINE2":"2 47358  53.0558  63.4275 0001325  98.2712 261.8427 15.06398313 40656","OBJECT_TYPE":"PAYLOAD","CENTER_NAME":"EARTH","MEAN_MOTION":"15.06398313","REF_FRAME":"TEME","MEAN_MOTION_DDOT":"0.0000000000000","ELEMENT_SET_NO":"999","RA_OF_ASC_NODE":"63.4275","SITE":"AFETR","MEAN_MOTION_DOT":"0.00002456","SEMIMAJOR_AXIS":"6925.354","PERIAPSIS":"546.301","NORAD_CAT_ID":"47358","MEAN_ELEMENT_THEORY":"SGP4","APOAPSIS":"548.136","BSTAR":"0.00018375000000","MEAN_ANOMALY":"261.8427","PERIOD":"95.592","OBJECT_ID":"2021-005K","TLE_LINE1":"1 47358U 21005K   21283.74443740  .00002456  00000-0  18375-3 0  9998","OBJECT_NAME":"STARLINK-2055","ARG_OF_PERICENTER":"98.2712","TIME_SYSTEM":"UTC","GP_ID":"186841308","LAUNCH_DATE":"2021-01-20"},{"PERIAPSIS":"545.939","SITE":"AFETR","SEMIMAJOR_AXIS":"6925.348","MEAN_MOTION_DOT":"-0.00000277","RA_OF_ASC_NODE":"87.7937","APOAPSIS":"548.487","BSTAR":"0.00000030328000","MEAN_ELEMENT_THEORY":"SGP4","NORAD_CAT_ID":"47359","TLE_LINE1":"1 47359U 21005L   21283.88773630 -.00000277  00000-0  30328-6 0  9993","OBJECT_ID":"2021-005L","MEAN_ANOMALY":"264.2087","PERIOD":"95.592","LAUNCH_DATE":"2021-01-20","GP_ID":"186840056","ARG_OF_PERICENTER":"95.9112","TIME_SYSTEM":"UTC","OBJECT_NAME":"STARLINK-2069","ECCENTRICITY":"0.00018400","EPHEMERIS_TYPE":"0","RCS_SIZE":"LARGE","EPOCH":"2021-10-10T21:18:20.416320","COUNTRY_CODE":"US","CLASSIFICATION_TYPE":"U","INCLINATION":"53.0561","TLE_LINE2":"2 47359  53.0561  87.7937 0001840  95.9112 264.2087 15.06400135 40324","REV_AT_EPOCH":"4032","DECAY_DATE":null,"FILE":"3155694","MEAN_MOTION_DDOT":"0.0000000000000","ELEMENT_SET_NO":"999","REF_FRAME":"TEME","MEAN_MOTION":"15.06400135","OBJECT_TYPE":"PAYLOAD","CENTER_NAME":"EARTH"},{"RCS_SIZE":"LARGE","EPOCH":"2021-10-10T18:16:33.108384","ECCENTRICITY":"0.00019510","EPHEMERIS_TYPE":"0","INCLINATION":"53.0576","CLASSIFICATION_TYPE":"U","COUNTRY_CODE":"US","FILE":"3155694","DECAY_DATE":null,"REV_AT_EPOCH":"4073","TLE_LINE2":"2 47360  53.0576  58.3589 0001951  93.7506 266.3706 15.06404304 40733","OBJECT_TYPE":"PAYLOAD","CENTER_NAME":"EARTH","MEAN_MOTION":"15.06404304","REF_FRAME":"TEME","MEAN_MOTION_DDOT":"0.0000000000000","ELEMENT_SET_NO":"999","RA_OF_ASC_NODE":"58.3589","SITE":"AFETR","SEMIMAJOR_AXIS":"6925.335","MEAN_MOTION_DOT":"0.00001124","PERIAPSIS":"545.849","NORAD_CAT_ID":"47360","MEAN_ELEMENT_THEORY":"SGP4","APOAPSIS":"548.551","BSTAR":"0.00009435500000","MEAN_ANOMALY":"266.3706","PERIOD":"95.592","TLE_LINE1":"1 47360U 21005M   21283.76149431  .00001124  00000-0  94355-4 0  9997","OBJECT_ID":"2021-005M","OBJECT_NAME":"STARLINK-2070","ARG_OF_PERICENTER":"93.7506","TIME_SYSTEM":"UTC","GP_ID":"186840306","LAUNCH_DATE":"2021-01-20"},{"COUNTRY_CODE":"US","INCLINATION":"53.0538","CLASSIFICATION_TYPE":"U","ECCENTRICITY":"0.00019890","EPHEMERIS_TYPE":"0","EPOCH":"2021-10-10T21:13:41.742624","RCS_SIZE":"LARGE","REF_FRAME":"TEME","ELEMENT_SET_NO":"999","MEAN_MOTION_DDOT":"0.0000000000000","OBJECT_TYPE":"PAYLOAD","CENTER_NAME":"EARTH","MEAN_MOTION":"15.06407005","TLE_LINE2":"2 47361  53.0538  62.7926 0001989  86.7404 273.3812 15.06407005 40676","FILE":"3155694","DECAY_DATE":null,"REV_AT_EPOCH":"4067","MEAN_ELEMENT_THEORY":"SGP4","BSTAR":"0.00007800500000","APOAPSIS":"548.570","NORAD_CAT_ID":"47361","PERIAPSIS":"545.815","RA_OF_ASC_NODE":"62.7926","SITE":"AFETR","SEMIMAJOR_AXIS":"6925.327","MEAN_MOTION_DOT":"0.00000881","GP_ID":"186840558","LAUNCH_DATE":"2021-01-20","OBJECT_NAME":"STARLINK-2071","TIME_SYSTEM":"UTC","ARG_OF_PERICENTER":"86.7404","TLE_LINE1":"1 47361U 21005N   21283.88451091  .00000881  00000-0  78005-4 0  9992","OBJECT_ID":"2021-005N","MEAN_ANOMALY":"273.3812","PERIOD":"95.592"},{"EPHEMERIS_TYPE":"0","ECCENTRICITY":"0.00017910","EPOCH":"2021-10-10T20:43:10.720992","RCS_SIZE":"LARGE","COUNTRY_CODE":"US","CLASSIFICATION_TYPE":"U","INCLINATION":"53.0538","TLE_LINE2":"2 47362  53.0538  92.9070 0001791  89.5534 270.5660 15.06394218 40253","REV_AT_EPOCH":"4025","FILE":"3155694","DECAY_DATE":null,"ELEMENT_SET_NO":"999","MEAN_MOTION_DDOT":"0.0000000000000","REF_FRAME":"TEME","MEAN_MOTION":"15.06394218","CENTER_NAME":"EARTH","OBJECT_TYPE":"PAYLOAD","PERIAPSIS":"545.991","SEMIMAJOR_AXIS":"6925.366","SITE":"AFETR","MEAN_MOTION_DOT":"-0.00000205","RA_OF_ASC_NODE":"92.9070","BSTAR":"0.00000513660000","APOAPSIS":"548.472","MEAN_ELEMENT_THEORY":"SGP4","NORAD_CAT_ID":"47362","OBJECT_ID":"2021-005P","TLE_LINE1":"1 47362U 21005P   21283.86331853 -.00000205  00000-0  51366-5 0  9997","PERIOD":"95.593","MEAN_ANOMALY":"270.5660","LAUNCH_DATE":"2021-01-20","GP_ID":"186840809","TIME_SYSTEM":"UTC","ARG_OF_PERICENTER":"89.5534","OBJECT_NAME":"STARLINK-2076"},{"PERIAPSIS":"546.241","SEMIMAJOR_AXIS":"6925.346","SITE":"AFETR","MEAN_MOTION_DOT":"-0.00000009","RA_OF_ASC_NODE":"93.1829","APOAPSIS":"548.181","BSTAR":"0.00001829100000","MEAN_ELEMENT_THEORY":"SGP4","NORAD_CAT_ID":"47363","OBJECT_ID":"2021-005Q","TLE_LINE1":"1 47363U 21005Q   21283.80065488 -.00000009  00000-0  18291-4 0  9991","MEAN_ANOMALY":"272.9736","PERIOD":"95.592","LAUNCH_DATE":"2021-01-20","GP_ID":"186839557","ARG_OF_PERICENTER":"87.1413","TIME_SYSTEM":"UTC","OBJECT_NAME":"STARLINK-2077","EPHEMERIS_TYPE":"0","ECCENTRICITY":"0.00014010","RCS_SIZE":"LARGE","EPOCH":"2021-10-10T19:12:56.581632","COUNTRY_CODE":"US","CLASSIFICATION_TYPE":"U","INCLINATION":"53.0534","TLE_LINE2":"2 47363  53.0534  93.1829 0001401  87.1413 272.9736 15.06400816 40244","REV_AT_EPOCH":"4024","FILE":"3155694","DECAY_DATE":null,"MEAN_MOTION_DDOT":"0.0000000000000","ELEMENT_SET_NO":"999","REF_FRAME":"TEME","MEAN_MOTION":"15.06400816","CENTER_NAME":"EARTH","OBJECT_TYPE":"PAYLOAD"},{"PERIAPSIS":"545.973","RA_OF_ASC_NODE":"93.0167","MEAN_MOTION_DOT":"0.00003177","SITE":"AFETR","SEMIMAJOR_AXIS":"6925.309","MEAN_ELEMENT_THEORY":"SGP4","APOAPSIS":"548.376","BSTAR":"0.00023200000000","NORAD_CAT_ID":"47364","TLE_LINE1":"1 47364U 21005R   21283.83383854  .00003177  00000-0  23200-3 0  9998","OBJECT_ID":"2021-005R","MEAN_ANOMALY":"271.8868","PERIOD":"95.591","GP_ID":"186839807","LAUNCH_DATE":"2021-01-20","OBJECT_NAME":"STARLINK-2079","ARG_OF_PERICENTER":"88.2320","TIME_SYSTEM":"UTC","ECCENTRICITY":"0.00017350","EPHEMERIS_TYPE":"0","RCS_SIZE":"LARGE","EPOCH":"2021-10-10T20:00:43.649856","COUNTRY_CODE":"US","INCLINATION":"53.0535","CLASSIFICATION_TYPE":"U","TLE_LINE2":"2 47364  53.0535  93.0167 0001735  88.2320 271.8868 15.06412806 40245","FILE":"3155694","DECAY_DATE":null,"REV_AT_EPOCH":"4024","REF_FRAME":"TEME","MEAN_MOTION_DDOT":"0.0000000000000","ELEMENT_SET_NO":"999","CENTER_NAME":"EARTH","OBJECT_TYPE":"PAYLOAD","MEAN_MOTION":"15.06412806"},{"NORAD_CAT_ID":"47365","APOAPSIS":"352.708","BSTAR":"0.00007878000000","MEAN_ELEMENT_THEORY":"SGP4","SEMIMAJOR_AXIS":"6727.798","SITE":"AFETR","MEAN_MOTION_DOT":"0.00010468","RA_OF_ASC_NODE":"356.0717","PERIAPSIS":"346.619","ARG_OF_PERICENTER":"355.5788","TIME_SYSTEM":"UTC","OBJECT_NAME":"STARLINK-2080","LAUNCH_DATE":"2021-01-20","GP_ID":"186841058","PERIOD":"91.531","MEAN_ANOMALY":"4.5190","OBJECT_ID":"2021-005S","TLE_LINE1":"1 47365U 21005S   21283.67558538  .00010468  00000-0  78780-4 0  9999","INCLINATION":"53.0502","CLASSIFICATION_TYPE":"U","COUNTRY_CODE":"US","RCS_SIZE":"LARGE","EPOCH":"2021-10-10T16:12:50.576832","ECCENTRICITY":"0.00045250","EPHEMERIS_TYPE":"0","MEAN_MOTION":"15.73234011","OBJECT_TYPE":"PAYLOAD","CENTER_NAME":"EARTH","MEAN_MOTION_DDOT":"0.0000000000000","ELEMENT_SET_NO":"999","REF_FRAME":"TEME","REV_AT_EPOCH":"4159","FILE":"3155694","DECAY_DATE":null,"TLE_LINE2":"2 47365  53.0502 356.0717 0004525 355.5788   4.5190 15.73234011 41593"},{"PERIAPSIS":"545.832","RA_OF_ASC_NODE":"93.3563","SITE":"AFETR","MEAN_MOTION_DOT":"0.00000012","SEMIMAJOR_AXIS":"6925.361","MEAN_ELEMENT_THEORY":"SGP4","APOAPSIS":"548.621","BSTAR":"0.00001969200000","NORAD_CAT_ID":"47366","OBJECT_ID":"2021-005T","TLE_LINE1":"1 47366U 21005T   21283.76011538  .00000012  00000-0  19692-4 0  9995","MEAN_ANOMALY":"266.8375","PERIOD":"95.592","GP_ID":"186841309","LAUNCH_DATE":"2021-01-20","OBJECT_NAME":"STARLINK-2081","ARG_OF_PERICENTER":"93.2844","TIME_SYSTEM":"UTC","ECCENTRICITY":"0.00020140","EPHEMERIS_TYPE":"0","RCS_SIZE":"LARGE","EPOCH":"2021-10-10T18:14:33.968832","COUNTRY_CODE":"US","INCLINATION":"53.0559","CLASSIFICATION_TYPE":"U","TLE_LINE2":"2 47366  53.0559  93.3563 0002014  93.2844 266.8375 15.06395820 40236","DECAY_DATE":null,"FILE":"3155694","REV_AT_EPOCH":"4023","REF_FRAME":"TEME","MEAN_MOTION_DDOT":"0.0000000000000","ELEMENT_SET_NO":"999","CENTER_NAME":"EARTH","OBJECT_TYPE":"PAYLOAD","MEAN_MOTION":"15.06395820"}];
